[
    {
        "CCSDS_OMM_VERS": "3.0",
        "COMMENT": "GENERATED VIA SPACE-TRACK.ORG API",
        "CREATION_DATE": "2025-04-12T03:00:55",
        "ORIGINATOR": "18 SPCS",
        "OBJECT_NAME": "NAVSTAR 83 (USA 440)",
        "OBJECT_ID": "2024-242A",
        "CENTER_NAME": "EARTH",
        "REF_FRAME": "TEME",
        "TIME_SYSTEM": "UTC",
        "MEAN_ELEMENT_THEORY": "SGP4",
        "EPOCH": "2025-04-11T07:22:04.360224",
        "MEAN_MOTION": "2.00557723",
        "ECCENTRICITY": "0.00051990",
        "INCLINATION": "54.9845",
        "RA_OF_ASC_NODE": "351.6695",
        "ARG_OF_PERICENTER": "335.2460",
        "MEAN_ANOMALY": "192.3426",
        "EPHEMERIS_TYPE": "0",
        "CLASSIFICATION_TYPE": "U",
        "NORAD_CAT_ID": "62339",
        "ELEMENT_SET_NO": "999",
        "REV_AT_EPOCH": "259",
        "BSTAR": "0.00000000000000",
        "MEAN_MOTION_DOT": "-0.00000103",
        "MEAN_MOTION_DDOT": "0.0000000000000",
        "SEMIMAJOR_AXIS": "26560.867",
        "PERIOD": "717.998",
        "APOAPSIS": "20196.541",
        "PERIAPSIS": "20168.923",
        "OBJECT_TYPE": "PAYLOAD",
        "RCS_SIZE": "LARGE",
        "COUNTRY_CODE": "US",
        "LAUNCH_DATE": "2024-12-17",
        "SITE": "AFETR",
        "DECAY_DATE": null,
        "FILE": "4699215",
        "GP_ID": "285412356",
        "TLE_LINE0": "0 NAVSTAR 83 (USA 440)",
        "TLE_LINE1": "1 62339U 24242A   25101.30699491 -.00000103  00000-0  00000-0 0  9992",
        "TLE_LINE2": "2 62339  54.9845 351.6695 0005199 335.2460 192.3426  2.00557723  2596"
    }
]